{"crs":{"type":"name","properties":{"name":"urn:ogc:def:crs:OGC:1.3:CRS84"}},"type":"FeatureCollection","name":"jalan_dusun","features":[{"geometry":{"type":"MultiLineString","coordinates":[[[110.251842144,-7.640324002],[110.251524566,-7.640147993],[110.251206988,-7.639971984],[110.251312543,-7.639716846],[110.251355244,-7.63957121],[110.251397944,-7.639425575],[110.251425943,-7.639330063],[110.251519291,-7.639030181],[110.251612639,-7.638730299]]]},"type":"Feature","properties":{"status":"Jalan utama","Id":0}},{"geometry":{"type":"MultiLineString","coordinates":[[[110.251425943,-7.639330063],[110.251019438,-7.639182486],[110.250612934,-7.639034909],[110.250535178,-7.639002683],[110.250404922,-7.638948689],[110.250274666,-7.638894695],[110.250194222,-7.638880373],[110.250097199,-7.638855389],[110.250000176,-7.638830405],[110.249924679,-7.638810964],[110.249849183,-7.638791523],[110.249801317,-7.638777492],[110.249753451,-7.638763462],[110.249269364,-7.638621539],[110.249366534,-7.638250618],[110.249448572,-7.637911757],[110.249518699,-7.637650681],[110.249573867,-7.637376522],[110.249617299,-7.63695747],[110.249673672,-7.636550378],[110.249715761,-7.63623078],[110.249788362,-7.635725241],[110.249836199,-7.635402395],[110.249899635,-7.63495711],[110.249963131,-7.634496799],[110.250011163,-7.634164534],[110.250080619,-7.633711285],[110.250153464,-7.633235915],[110.250302112,-7.633259029],[110.2508056,-7.633407199],[110.251312786,-7.633556361],[110.251758391,-7.633657295],[110.251977262,-7.633698464],[110.252110216,-7.633717801],[110.252377668,-7.633727507],[110.252764503,-7.633588039],[110.252953499,-7.633514834]]]},"type":"Feature","properties":{"status":"Jalan utama","Id":0}},{"geometry":{"type":"MultiLineString","coordinates":[[[110.249269364,-7.638621539],[110.249150016,-7.638583664],[110.248923603,-7.638511049],[110.248565041,-7.63839605],[110.248332495,-7.638321467],[110.248106993,-7.63825113],[110.247873029,-7.638197247],[110.247730034,-7.638164315],[110.24778119,-7.637957812],[110.247812696,-7.637773594],[110.247836959,-7.637615688],[110.247873006,-7.637577461],[110.247986956,-7.63757048],[110.248216028,-7.637572075],[110.248404301,-7.637585565],[110.248706376,-7.63767703],[110.248917343,-7.637744405],[110.249248167,-7.637856261],[110.249448572,-7.637911757]]]},"type":"Feature","properties":{"status":"Jalan utama","Id":0}},{"geometry":{"type":"MultiLineString","coordinates":[[[110.249269364,-7.638621539],[110.249241123,-7.638713774],[110.249204193,-7.638845812],[110.249183167,-7.638935518],[110.249177088,-7.638963585],[110.249213253,-7.639014544],[110.249351281,-7.63909304],[110.249513762,-7.639179476],[110.249782677,-7.639304865],[110.249938871,-7.639380401],[110.250342793,-7.639568606],[110.250856886,-7.639814317],[110.251206988,-7.639971984]]]},"type":"Feature","properties":{"status":"Jalan utama","Id":0}},{"geometry":{"type":"MultiLineString","coordinates":[[[110.251842144,-7.640324002],[110.252020175,-7.640531868],[110.252178462,-7.640832302],[110.252346155,-7.640957036],[110.252446676,-7.64108644],[110.252599918,-7.641244653],[110.252647784,-7.641306958],[110.252868057,-7.641541868],[110.253107953,-7.641527924],[110.253429438,-7.641494976],[110.253645305,-7.641504921]]]},"type":"Feature","properties":{"status":"Jalan utama","Id":0}},{"geometry":{"type":"MultiLineString","coordinates":[[[110.250048687,-7.638842897],[110.25000988,-7.638992757],[110.249965507,-7.63912861],[110.249931363,-7.639165832],[110.249906881,-7.639184987],[110.249870269,-7.639272034],[110.249834861,-7.639330102]]]},"type":"Feature","properties":{"status":"Jalan setapak","Id":0}},{"geometry":{"type":"MultiLineString","coordinates":[[[110.24884991,-7.638741375],[110.249016525,-7.638795511],[110.249204193,-7.638845812]]]},"type":"Feature","properties":{"status":"Jalan setapak","Id":0}},{"geometry":{"type":"MultiLineString","coordinates":[[[110.248586922,-7.638403068],[110.248548478,-7.638540792],[110.248524627,-7.638624158],[110.248754743,-7.63871502],[110.24884991,-7.638741375]]]},"type":"Feature","properties":{"status":"Jalan setapak","Id":0}},{"geometry":{"type":"MultiLineString","coordinates":[[[110.248364108,-7.638331606],[110.248439384,-7.638057552],[110.248599542,-7.637629047]]]},"type":"Feature","properties":{"status":"Jalan setapak","Id":0}},{"geometry":{"type":"MultiLineString","coordinates":[[[110.249448572,-7.637911757],[110.249797458,-7.637984647],[110.25015417,-7.638107317]]]},"type":"Feature","properties":{"status":"Jalan setapak","Id":0}},{"geometry":{"type":"MultiLineString","coordinates":[[[110.25015417,-7.638107317],[110.250288161,-7.638163155],[110.250202343,-7.638318343],[110.250102759,-7.638517889],[110.250051362,-7.638557061],[110.249999677,-7.638761811],[110.249978657,-7.638824864]]]},"type":"Feature","properties":{"status":"Jalan setapak","Id":0}}]}